H1 CPF 01  gfz 2021 05 26 00  6461 tandemx   
H2 1003001  6202 36605    2021 05 26 00 59 42 2021 05 31 00 00 42   120 1 1  0 0 0
H9
10 0 59363  75582.000000  0    4604046.910  -3932074.531  -3295525.073
10 0 59363  75702.000000  0    4765564.898  -4320457.129  -2476177.874
10 0 59363  75822.000000  0    4837837.228  -4635556.215  -1613351.863
10 0 59363  75942.000000  0    4820872.533  -4870242.685   -722172.537
10 0 59363  76062.000000  0    4716361.091  -5018809.989    181706.737
10 0 59363  76182.000000  0    4527624.430  -5077109.932   1082386.167
10 0 59363  76302.000000  0    4259532.274  -5042658.127   1964008.161
10 0 59363  76422.000000  0    3918386.598  -4914705.263   2811045.399
10 0 59363  76542.000000  0    3511778.453  -4694274.163   3608581.914
10 0 59363  76662.000000  0    3048419.594  -4384160.134   4342582.324
10 0 59363  76782.000000  0    2537954.111  -3988895.007   5000142.278
10 0 59363  76902.000000  0    1990755.062  -3514676.650   5569715.755
10 0 59363  77022.000000  0    1417710.579  -2969265.996   6041316.118
10 0 59363  77142.000000  0     830004.233  -2361853.269   6406686.252
10 0 59363  77262.000000  0     238895.070  -1702898.458   6659436.772
10 0 59363  77382.000000  0    -344498.341  -1003948.285   6795151.382
10 0 59363  77502.000000  0    -909405.959   -277431.873   6811459.934
10 0 59363  77622.000000  0   -1445604.208    463560.750   6708076.956
10 0 59363  77742.000000  0   -1943600.488   1205514.071   6486806.196
10 0 59363  77862.000000  0   -2394801.221   1934732.715   6151511.077
10 0 59363  77982.000000  0   -2791661.056   2637593.726   5708051.485
10 0 59363  78102.000000  0   -3127810.944   3300802.246   5164187.644
10 0 59363  78222.000000  0   -3398163.912   3911645.662   4529450.642
10 0 59363  78342.000000  0   -3598995.256   4458242.165   3814980.756
10 0 59363  78462.000000  0   -3727995.470   4929778.189   3033335.080
10 0 59363  78582.000000  0   -3784294.424   5316729.367   2198266.859
10 0 59363  78702.000000  0   -3768455.529   5611058.136   1324480.272
10 0 59363  78822.000000  0   -3682440.563   5806384.199    427367.249
10 0 59363  78942.000000  0   -3529546.863   5898125.330   -477270.638
10 0 59363  79062.000000  0   -3314315.876   5883601.502  -1373510.949
10 0 59363  79182.000000  0   -3042416.322   5762099.346  -2245601.163
10 0 59363  79302.000000  0   -2720502.994   5534895.158  -3078243.244
10 0 59363  79422.000000  0   -2356059.279   5205239.197  -3856865.076
10 0 59363  79542.000000  0   -1957226.774   4778300.835  -4567876.565
10 0 59363  79662.000000  0   -1532625.137   4261076.311  -5198902.317
10 0 59363  79782.000000  0   -1091168.602   3662264.986  -5738989.396
10 0 59363  79902.000000  0    -641881.188   2992114.944  -6178789.282
10 0 59363  80022.000000  0    -193714.603   2262240.337  -6510709.002
10 0 59363  80142.000000  0     244626.263   1485417.045  -6729029.890
10 0 59363  80262.000000  0     664847.431    675359.830  -6829996.794
10 0 59363  80382.000000  0    1059218.987   -153516.277  -6811875.860
10 0 59363  80502.000000  0    1420713.537   -986347.784  -6674980.339
10 0 59363  80622.000000  0    1743127.801  -1808082.350  -6421664.369
10 0 59363  80742.000000  0    2021187.203  -2603743.323  -6056287.350
10 0 59363  80862.000000  0    2250631.878  -3358697.165  -5585148.255
10 0 59363  80982.000000  0    2428283.018  -4058922.376  -5016388.679
10 0 59363  81102.000000  0    2552087.398  -4691271.421  -4359861.350
10 0 59363  81222.000000  0    2621139.272  -5243720.235  -3626970.215
10 0 59363  81342.000000  0    2635679.193  -5705604.475  -2830482.456
10 0 59363  81462.000000  0    2597069.745  -6067835.086  -1984312.019
10 0 59363  81582.000000  0    2507748.443  -6323088.218  -1103279.341
10 0 59363  81702.000000  0    2371157.351  -6465963.668   -202848.995
10 0 59363  81822.000000  0    2191650.398  -6493104.760    701147.922
10 0 59363  81942.000000  0    1974382.184  -6403279.463   1592798.819
10 0 59363  82062.000000  0    1725180.313  -6197419.058   2456400.053
10 0 59363  82182.000000  0    1450403.105  -5878610.944   3276742.411
10 0 59363  82302.000000  0    1156788.666  -5452048.876   4039385.577
10 0 59363  82422.000000  0     851298.026  -4924941.415   4730916.165
10 0 59363  82542.000000  0     540956.608  -4306382.655   5339185.649
10 0 59363  82662.000000  0     232697.139  -3607185.434   5853523.595
10 0 59363  82782.000000  0     -66790.514  -2839681.871   6264920.800
10 0 59363  82902.000000  0    -351200.853  -2017498.413   6566180.024
10 0 59363  83022.000000  0    -614742.230  -1155310.472   6752035.399
10 0 59363  83142.000000  0    -852252.443   -268578.711   6819240.176
10 0 59363  83262.000000  0   -1059298.610    626729.422   6766620.572
10 0 59363  83382.000000  0   -1232259.427   1514427.181   6595094.698
10 0 59363  83502.000000  0   -1368388.213   2378400.493   6307657.377
10 0 59363  83622.000000  0   -1465856.660   3202900.394   5909331.242
10 0 59363  83742.000000  0   -1523778.495   3972831.605   5407083.748
10 0 59363  83862.000000  0   -1542211.753   4674032.304   4809711.733
10 0 59363  83982.000000  0   -1522141.048   5293541.525   4127693.304
10 0 59363  84102.000000  0   -1465438.597   5819846.946   3373007.569
10 0 59363  84222.000000  0   -1374806.404   6243107.732   2558926.512
10 0 59363  84342.000000  0   -1253700.464   6555348.972   1699780.285
10 0 59363  84462.000000  0   -1106235.566   6750620.587    810700.049
10 0 59363  84582.000000  0    -937075.864   6825116.133    -92654.826
10 0 59363  84702.000000  0    -751313.466   6777251.053   -994380.551
10 0 59363  84822.000000  0    -554337.428   6607694.780  -1878620.142
10 0 59363  84942.000000  0    -351697.786   6319354.176  -2729851.042
10 0 59363  85062.000000  0    -148968.622   5917313.425  -3533161.795
10 0 59363  85182.000000  0      48387.460   5408733.311  -4274514.700
10 0 59363  85302.000000  0     235150.377   4802711.493  -4940989.760
10 0 59363  85422.000000  0     406465.807   4110107.785  -5521004.738
10 0 59363  85542.000000  0     557957.867   3343339.091  -6004508.586
10 0 59363  85662.000000  0     685828.261   2516148.441  -6383145.189
10 0 59363  85782.000000  0     786940.708   1643354.534  -6650385.852
10 0 59363  85902.000000  0     858889.409    740586.806  -6801630.967
10 0 59363  86022.000000  0     900050.063   -175991.061  -6834281.012
10 0 59363  86142.000000  0     909613.273  -1089965.256  -6747776.081
10 0 59363  86262.000000  0     887599.361  -1984958.368  -6543602.595
10 0 59363  86382.000000  0     834855.396  -2844913.883  -6225270.720
10 0 59364    102.000000  0     753034.062  -3654379.275  -5798263.220
10 0 59364    222.000000  0     644553.451  -4398782.721  -5269949.997
10 0 59364    342.000000  0     512540.395  -5064696.030  -4649471.570
10 0 59364    462.000000  0     360756.636  -5640082.244  -3947592.901
10 0 59364    582.000000  0     193509.178  -6114522.484  -3176526.268
10 0 59364    702.000000  0      15546.740  -6479415.598  -2349726.009
10 0 59364    822.000000  0    -168055.537  -6728147.578  -1481658.031
10 0 59364    942.000000  0    -352020.899  -6856224.488   -587545.759
10 0 59364   1062.000000  0    -531002.124  -6861363.972    316901.091
10 0 59364   1182.000000  0    -699715.821  -6743543.437   1215768.757
10 0 59364   1302.000000  0    -853076.624  -6505003.990   2093227.813
10 0 59364   1422.000000  0    -986327.617  -6150207.975   2933821.597
10 0 59364   1542.000000  0   -1095162.701  -5685751.115   3722747.653
10 0 59364   1662.000000  0   -1175838.197  -5120231.077   4446124.082
10 0 59364   1782.000000  0   -1225272.175  -4464078.856   5091235.572
10 0 59364   1902.000000  0   -1241127.684  -3729357.680   5646757.292
10 0 59364   2022.000000  0   -1221879.207  -2929530.987   6102952.344
10 0 59364   2142.000000  0   -1166859.448  -2079206.408   6451836.225
10 0 59364   2262.000000  0   -1076286.469  -1193864.840   6687309.369
10 0 59364   2382.000000  0    -951272.068   -289576.209   6805258.897
10 0 59364   2502.000000  0    -793810.802    617293.362   6803625.805
10 0 59364   2622.000000  0    -606748.249   1510377.298   6682439.070
10 0 59364   2742.000000  0    -393729.282   2373603.682   6443815.188
10 0 59364   2862.000000  0    -159127.700   3191484.326   6091923.301
10 0 59364   2982.000000  0      92041.252   3949393.809   5632916.915
10 0 59364   3102.000000  0     354224.243   4633834.474   5074831.648
10 0 59364   3222.000000  0     621448.370   5232682.703   4427451.123
10 0 59364   3342.000000  0     887451.491   5735411.904   3702138.854
10 0 59364   3462.000000  0    1145820.907   6133284.507   2911643.942
10 0 59364   3582.000000  0    1390142.353   6419519.206   2069878.357
10 0 59364   3702.000000  0    1614149.387   6589413.393   1191665.259
10 0 59364   3822.000000  0    1811872.581   6640426.262    292472.017
10 0 59364   3942.000000  0    1977784.204   6572217.341   -611870.301
10 0 59364   4062.000000  0    2106934.128   6386641.359  -1505453.648
10 0 59364   4182.000000  0    2195074.350   6087699.859  -2372580.322
10 0 59364   4302.000000  0    2238768.929   5681450.586  -3198045.304
10 0 59364   4422.000000  0    2235486.533   5175876.511  -3967407.610
10 0 59364   4542.000000  0    2183673.088   4580717.595  -4667243.785
10 0 59364   4662.000000  0    2082802.867   3907271.819  -5285378.137
10 0 59364   4782.000000  0    1933408.164   3168171.450  -5811086.889
10 0 59364   4902.000000  0    1737086.875   2377139.214  -6235274.898
10 0 59364   5022.000000  0    1496487.882   1548729.390  -6550621.248
10 0 59364   5142.000000  0    1215276.295    698060.656  -6751694.069
10 0 59364   5262.000000  0     898077.748   -159456.670  -6835035.265
10 0 59364   5382.000000  0     550402.384  -1008394.888  -6799213.031
10 0 59364   5502.000000  0     178550.789  -1833579.578  -6644842.084
10 0 59364   5622.000000  0    -210496.479  -2620352.479  -6374574.422
99
